satname,norad_id,inclination_deg,eccentricity,mean_motion_rev_per_day,perigee_km,apogee_km,l1,l2
STARLINK-1316,45415,53.1561,0.0005037,15.39458939,444.2700206722402,451.14637712561216,1 45415U 20019BH  26166.00004630  .00069177  00000+0  17323-2 0  9992,2 45415  53.1561  34.1631 0005037 104.6678  78.0441 15.39458939  5798
STARLINK-1286,45417,53.0461,0.0001734,15.64914502,372.3139304312581,374.65539282351074,1 45417U 20019BK  26165.89285818  .00053221  00000+0  53578-3 0  9995,2 45417  53.0461  19.7813 0001734 248.8847 111.1982 15.64914502345368
STARLINK-1308,45419,53.0469,0.0007038,15.66513405,364.14117582894323,373.63829065865684,1 45419U 20019BM  26165.91199286  .00046161  00000+0  43660-3 0  9999,2 45419  53.0469  39.0084 0007038  69.2233 290.9536 15.66513405344842
STARLINK-1329,45531,53.0433,0.0001817,15.74099483,345.9729358989771,348.4169215218699,1 45531U 20025A   26164.72626937  .00074597  00000+0  51102-3 0  9991,2 45531  53.0433 328.2285 0001817 187.1426 172.9567 15.74099483340514
STARLINK-1338,45532,53.0448,0.0001836,15.68609047,361.6414484775614,364.1167495891259,1 45532U 20025B   26165.72762300  .00049898  00000+0  43336-3 0  9994,2 45532  53.0448 330.1693 0001836 112.3386 247.7825 15.68609047340572
STARLINK-1350,45535,53.0727,0.0001257,15.38384746,450.0268989530796,451.74371516107294,1 45535U 20025E   26165.65948999  .00011181  00000+0  30088-3 0  9993,2 45535  53.0727 296.9158 0001257  81.5406 278.5740 15.38384746341074
STARLINK-1362,45538,53.1584,0.0002749,15.37991136,450.1727827413133,453.9280197745238,1 45538U 20025H   26165.82075243 -.00003428  00000+0 -80066-4 0  9997,2 45538  53.1584   7.4483 0002749 203.6825 156.4053 15.37991136340081
STARLINK-1368,45540,53.1582,0.0003321,15.38091929,449.4837983050784,454.0202105818298,1 45540U 20025K   26165.83352789  .00041432  00000+0  10932-2 0  9992,2 45540  53.1582   7.7479 0003321 166.6198 193.4895 15.38091929340074
STARLINK-1371,45542,53.0453,0.0003073,15.63573997,375.26708086371036,379.4189988962207,1 45542U 20025M   26165.65881449  .00097388  00000+0  10232-2 0  9998,2 45542  53.0453 340.4580 0003073 184.7744 175.3241 15.63573997340425
STARLINK-1372,45543,53.1571,0.0002427,15.38595993,448.60296417103746,451.91746817977037,1 45543U 20025N   26165.85488536  .00047348  00000+0  12266-2 0  9991,2 45543  53.1571   7.1206 0002427 151.5843 208.5294 15.38595993339184
STARLINK-1373,45544,53.0453,0.0002089,15.70616168,355.7278929934155,358.5418895895973,1 45544U 20025P   26165.73763931  .00056206  00000+0  44839-3 0  9999,2 45544  53.0453 335.2655 0002089  75.1189 285.0060 15.70616168340507
STARLINK-1327,45555,53.0418,0.0003265,15.6792191,362.64685697255663,367.0500264659986,1 45555U 20025AA  26165.66398844  .00046692  00000+0  41747-3 0  9993,2 45555  53.0418 312.9190 0003265  80.1722 279.9662 15.67921910340805
STARLINK-1356,45564,53.045,0.0001221,15.65760206,370.2292265670785,371.877378838999,1 45564U 20025AK  26165.63100942  .00038913  00000+0  38089-3 0  9992,2 45564  53.0450 326.3435 0001221 330.6567  29.4379 15.65760206340611
STARLINK-1357,45565,53.0449,0.0003492,15.70303354,355.6770637906111,360.3816023576301,1 45565U 20025AL  26165.58109708  .00054364  00000+0  43956-3 0  9993,2 45565  53.0449 283.1060 0003492 131.8798 228.2517 15.70303354341227
STARLINK-1361,45567,53.0428,0.0003349,15.64034761,373.75423438487724,378.2781661984318,1 45567U 20025AN  26165.89157803  .00098835  00000+0  10195-2 0  9997,2 45567  53.0428 323.4687 0003349 302.4019  57.6671 15.64034761340682
STARLINK-1376,45570,53.1574,0.0002774,15.38951843,447.3136554590201,451.1014662213747,1 45570U 20025AR  26165.76528875  .00050124  00000+0  12825-2 0  9999,2 45570  53.1574 343.9274 0002774 138.3594 221.7622 15.38951843340403
STARLINK-1320,45572,53.0386,0.0009486,15.89030867,298.65917242900923,311.3384176593672,1 45572U 20025AT  26166.00004630  .00208591  26721-4  72282-3 0  9997,2 45572  53.0386 219.0985 0009486   0.0268  86.8656 15.89030867  5873
STARLINK-1321,45573,53.0424,0.0001229,15.64747763,373.13445356372995,374.79412006002804,1 45573U 20025AU  26165.64106177  .00041708  00000+0  42445-3 0  9996,2 45573  53.0424 308.5437 0001229 248.0110 112.0774 15.64747763340564
STARLINK-1331,45578,53.0456,6.01e-05,15.64609486,373.9562803966255,374.7679307891176,1 45578U 20025AZ  26165.92120163  .00056524  00000+0  57539-3 0  9995,2 45578  53.0456 314.0882 0000601 126.3573 233.7497 15.64609486340825
STARLINK-1333,45580,53.1575,9.57e-05,15.35869469,457.68490055492293,458.9934020902865,1 45580U 20025BB  26165.76135193  .00035335  00000+0  10040-2 0  9991,2 45580  53.1575 345.6082 0000957 217.0051 143.0886 15.35869469340389
STARLINK-1335,45581,53.1547,0.0003437,15.37606451,450.8416306116833,455.5374844873422,1 45581U 20025BC  26165.78344512  .00035382  00000+0  95061-3 0  9990,2 45581  53.1547 342.1391 0003437 158.3571 201.7579 15.37606451340422
STARLINK-1337,45582,53.0452,0.0002775,15.75585426,341.10069353565723,344.8309055894142,1 45582U 20025BD  26165.92367808  .00076616  00000+0  49185-3 0  9991,2 45582  53.0452 302.8662 0002775 103.1683 256.9646 15.75585426340963
STARLINK-1347,45586,53.0388,6.72e-05,15.69375162,360.23225011962313,361.1379478097233,1 45586U 20025BH  26165.55847003  .00052481  00000+0  44130-3 0  9993,2 45586  53.0388 275.4599 0000672 119.2076 240.9007 15.69375162341318
STARLINK-1364,45589,53.0439,0.0001121,15.70144979,357.7271193693705,359.2374694151731,1 45589U 20025BL  26165.69016780  .00055907  00000+0  45489-3 0  9995,2 45589  53.0439 311.4714 0001121 325.9333  34.1611 15.70144979340821
STARLINK-1365,45590,53.0455,0.000148,15.60365906,385.5981387390575,387.60050068969304,1 45590U 20025BM  26165.79286543  .00092821  00000+0  11053-2 0  9999,2 45590  53.0455 345.6185 0001480 132.0967 228.0172 15.60365906340370
STARLINK-1443,45660,53.1333,0.0002108,15.33154601,464.96450402139544,467.85016391259614,1 45660U 20035D   26165.63928728  .00044327  00000+0  13680-2 0  9995,2 45660  53.1333 335.0069 0002108  90.0592 270.0651 15.33154601333596
STARLINK-1446,45663,53.0218,0.0001302,15.48104794,421.3850866758685,423.15591278879947,1 45663U 20035G   26165.95542267  .00030528  00000+0  57853-3 0  9992,2 45663  53.0218 255.6748 0001302 244.0062 116.0810 15.48104794334714
STARLINK-1448,45665,53.0438,0.0003567,15.69133796,358.97214592612636,363.7801145932526,1 45665U 20035J   26165.91366626  .00058295  00000+0  49409-3 0  9992,2 45665  53.0438 297.7843 0003567 103.2615 256.8799 15.69133796334118
STARLINK-1451,45668,53.0514,0.0001474,15.14580572,521.2350840335757,523.269318770148,1 45668U 20035M   26165.82424948  .00026457  00000+0  14281-2 0  9991,2 45668  53.0514 345.9385 0001474 136.6430 223.4679 15.14580572333443
STARLINK-1452,45669,53.0257,0.0005488,15.60196644,383.37581511089047,390.80132669751583,1 45669U 20035N   26165.57975928  .00092705  00000+0  11105-2 0  9994,2 45669  53.0257 274.9835 0005488 333.4553  26.6177 15.60196644334419
STARLINK-1453,45670,53.0396,0.0002223,15.69859541,357.80112329833264,360.79658727959395,1 45670U 20035P   26165.81493203  .00062298  00000+0  51195-3 0  9992,2 45670  53.0396 258.5263 0002223 334.9555  25.1353 15.69859541334556
STARLINK-1454,45671,53.0435,0.0002381,15.67487662,364.48794215781345,367.6995448378675,1 45671U 20035Q   26165.67033293  .00052363  00000+0  47560-3 0  9999,2 45671  53.0435 300.2914 0002381  36.1952 323.9224 15.67487662334056
STARLINK-1456,45673,53.0424,0.0002749,15.66307925,367.6248841361976,371.3347238550341,1 45673U 20035S   26165.64292888  .00047160  00000+0  45000-3 0  9991,2 45673  53.0424 295.0619 0002749 187.1556 172.9420 15.66307925334146
STARLINK-1458,45675,53.0463,0.0001433,15.58411824,391.2827796744896,393.223173441771,1 45675U 20035U   26165.63832373  .00088605  00000+0  11372-2 0  9994,2 45675  53.0463 310.0979 0001433   6.9455 353.1576 15.58411824333894
STARLINK-1460,45676,53.1577,0.0002047,15.35740128,457.323488909723,460.12249939132835,1 45676U 20035V   26165.73776815  .00048854  00000+0  13872-2 0  9993,2 45676  53.1577 332.9128 0002047 204.5855 155.5051 15.35740128333599
STARLINK-1392,45677,53.1538,0.0002085,15.3907739,447.4128476861679,450.2596955404306,1 45677U 20035W   26165.74088359  .00053541  00000+0  13631-2 0  9996,2 45677  53.1538 331.3678 0002085 231.2797 128.8021 15.39077390333659
STARLINK-1394,45679,53.0408,0.0002975,15.65936618,368.53866913166803,372.5541357561224,1 45679U 20035Y   26165.58365164  .00043958  00000+0  42625-3 0  9999,2 45679  53.0408 285.6525 0002975 203.1019 156.9862 15.65936618334260
STARLINK-1402,45685,53.0415,0.0003619,15.58878444,388.4521374481865,393.35156776970416,1 45685U 20035AE  26165.55814836  .00094519  00000+0  11904-2 0  9992,2 45685  53.0415 276.9597 0003619 237.5550 122.5112 15.58878444334399
STARLINK-1404,45686,53.1572,0.0003119,15.45493042,427.80631493982764,432.0531869790757,1 45686U 20035AF  26165.64160359  .00047556  00000+0  97888-3 0  9992,2 45686  53.1572 313.1735 0003119 229.8622 130.2112 15.45493042333907
STARLINK-1413,45689,53.1574,0.0001686,15.35685046,457.7337541560619,460.03919847227553,1 45689U 20035AJ  26165.71186270  .00053481  00000+0  15193-2 0  9995,2 45689  53.1574 317.6823 0001686 251.6216 108.4604 15.35685046333761
STARLINK-1417,45693,53.0497,0.0004443,15.17222282,511.177855088662,517.3024214137122,1 45693U 20035AN  26165.77934331  .00026795  00000+0  13416-2 0  9999,2 45693  53.0497 332.6765 0004443 162.7812 197.3334 15.17222282333619
STARLINK-1420,45695,53.0452,0.0002078,15.68993498,360.3773307969841,363.17843942323634,1 45695U 20035AQ  26165.58475650  .00051754  00000+0  44216-3 0  9990,2 45695  53.0452 268.6826 0002078 135.6578 224.4604 15.68993498334509
STARLINK-1422,45696,53.1558,0.000155,15.35686016,457.82385909840195,459.943335483561,1 45696U 20035AR  26165.71525004  .00049177  00000+0  13987-2 0  9991,2 45696  53.1558 317.6193 0001550 229.3695 130.7174 15.35686016333841
